IRIDIUM 126             
1 42809U 17039G   25308.49401657  .00000369  00000+0  12477-3 0  9998
2 42809  86.3942  87.5758 0002145  88.4689 271.6752 14.34217317437740
IRIDIUM 124             
1 42810U 17039H   25308.69779623  .00000489  00000+0  13946-3 0  9998
2 42810  86.4531  24.2055 0002028  92.7753 267.3680 14.43281379442731
IRIDIUM 128             
1 42811U 17039J   25308.76383695  .00000114  00000+0  33702-4 0  9995
2 42811  86.3936 118.9970 0001657  93.0403 267.0983 14.34219937437817
IRIDIUM 121             
1 42812U 17039K   25308.79211788  .00000013  00000+0 -25538-5 0  9990
2 42812  86.3939  87.4772 0001904  96.5556 263.5857 14.34217161437664
IRIDIUM 133             
1 42955U 17061A   25308.72577157  .00000098  00000+0  28099-4 0  9997
2 42955  86.3938 119.1253 0002017  89.6972 270.4455 14.34218636422606
IRIDIUM 100             
1 42956U 17061B   25308.92873385 -.00000011  00000+0 -10945-4 0  9990
2 42956  86.3938 118.9642 0001884  85.9276 274.2135 14.34217248422631
IRIDIUM 122             
1 42957U 17061C   25308.75748464 -.00000016  00000+0 -12613-4 0  9990
2 42957  86.3939 119.0354 0001899  86.2892 273.8521 14.34217287422614
IRIDIUM 129             
1 42958U 17061D   25308.92239210 -.00000019  00000+0 -13780-4 0  9993
2 42958  86.3940 119.0311 0002357  89.9004 270.2462 14.34217271422657
